[{"OBJECT_NAME":"STARLINK-5480","OBJECT_ID":"2023-021AN","EPOCH":"2026-03-09T22:00:01.999584","MEAN_MOTION":14.98352472,"ECCENTRICITY":0.0003256,"INCLINATION":70.001,"RA_OF_ASC_NODE":163.9699,"ARG_OF_PERICENTER":271.3412,"MEAN_ANOMALY":188.798,"EPHEMERIS_TYPE":0,"CLASSIFICATION_TYPE":"U","NORAD_CAT_ID":55664,"ELEMENT_SET_NO":999,"REV_AT_EPOCH":576,"BSTAR":-0.0037639134,"MEAN_MOTION_DOT":-0.00044745,"MEAN_MOTION_DDOT":0},{"OBJECT_NAME":"FENGYUN 1C DEB","OBJECT_ID":"1999-025BBV","EPOCH":"2026-03-07T05:09:56.553696","MEAN_MOTION":14.80587574,"ECCENTRICITY":0.0186084,"INCLINATION":97.8242,"RA_OF_ASC_NODE":327.5507,"ARG_OF_PERICENTER":327.1548,"MEAN_ANOMALY":189.2508,"EPHEMERIS_TYPE":0,"CLASSIFICATION_TYPE":"U","NORAD_CAT_ID":30979,"ELEMENT_SET_NO":999,"REV_AT_EPOCH":371,"BSTAR":0.0016537,"MEAN_MOTION_DOT":0.0001706,"MEAN_MOTION_DDOT":0}]
